[{"OBJECT_NAME":"HULIANWANG JISHU SHIYAN A","OBJECT_ID":"2023-095A","EPOCH":"2026-03-09T23:39:57.496896","MEAN_MOTION":13.39533885,"ECCENTRICITY":0.00194557,"INCLINATION":86.5016,"RA_OF_ASC_NODE":39.0925,"ARG_OF_PERICENTER":104.84,"MEAN_ANOMALY":255.49,"EPHEMERIS_TYPE":0,"CLASSIFICATION_TYPE":"U","NORAD_CAT_ID":57288,"ELEMENT_SET_NO":999,"REV_AT_EPOCH":13047,"BSTAR":0.0001102838,"MEAN_MOTION_DOT":7.5e-7,"MEAN_MOTION_DDOT":0},{"OBJECT_NAME":"HJS-7B","OBJECT_ID":"2025-209B","EPOCH":"2026-03-09T21:59:22.593408","MEAN_MOTION":13.41451936,"ECCENTRICITY":8.722e-5,"INCLINATION":50.0014,"RA_OF_ASC_NODE":2.9752,"ARG_OF_PERICENTER":190.3552,"MEAN_ANOMALY":169.7307,"EPHEMERIS_TYPE":0,"CLASSIFICATION_TYPE":"U","NORAD_CAT_ID":65618,"ELEMENT_SET_NO":999,"REV_AT_EPOCH":2431,"BSTAR":0.00014651789,"MEAN_MOTION_DOT":-4.6e-7,"MEAN_MOTION_DDOT":0}]
